[{"OBJECT_NAME":"STARLINK-1350","OBJECT_ID":"2020-025E","EPOCH":"2026-03-09T06:29:12.850368","MEAN_MOTION":15.36101991,"ECCENTRICITY":0.00022158,"INCLINATION":53.0734,"RA_OF_ASC_NODE":35.1149,"ARG_OF_PERICENTER":70.5154,"MEAN_ANOMALY":289.6087,"EPHEMERIS_TYPE":0,"CLASSIFICATION_TYPE":"U","NORAD_CAT_ID":45535,"ELEMENT_SET_NO":999,"REV_AT_EPOCH":32609,"BSTAR":0.00042940249,"MEAN_MOTION_DOT":0.00014967,"MEAN_MOTION_DDOT":0},{"OBJECT_NAME":"STARLINK-2518","OBJECT_ID":"2021-036BK","EPOCH":"2026-03-10T00:00:02.999808","MEAN_MOTION":15.27302639,"ECCENTRICITY":0.00013317,"INCLINATION":53.1456,"RA_OF_ASC_NODE":99.422,"ARG_OF_PERICENTER":102.7597,"MEAN_ANOMALY":329.0841,"EPHEMERIS_TYPE":0,"CLASSIFICATION_TYPE":"U","NORAD_CAT_ID":48333,"ELEMENT_SET_NO":999,"REV_AT_EPOCH":578,"BSTAR":0.061653293,"MEAN_MOTION_DOT":0.0183578,"MEAN_MOTION_DDOT":0}]
